{"type": "FeatureCollection", "features": [{"type": "Feature", "properties": {"norad_id": 28890, "name": "BEIJING 1", "group": "dmc", "lat": 73.15673072997032, "lon": 97.24254800504896, "alt_km": 665.7527453253542, "timestamp": "2025-12-24T09:46:30.662043+00:00", "meta": {"OBJECT_NAME": "BEIJING 1", "OBJECT_ID": "2005-043A", "EPOCH": "2025-12-24T04:30:35.156160", "MEAN_MOTION": 14.63375035, "ECCENTRICITY": 0.0015829, "INCLINATION": 98.2665, "RA_OF_ASC_NODE": 125.7226, "ARG_OF_PERICENTER": 107.658, "MEAN_ANOMALY": 252.6352, "EPHEMERIS_TYPE": 0, "CLASSIFICATION_TYPE": "U", "NORAD_CAT_ID": 28890, "ELEMENT_SET_NO": 999, "REV_AT_EPOCH": 7505, "BSTAR": 3.7e-05, "MEAN_MOTION_DOT": 1.43e-06, "MEAN_MOTION_DDOT": 0}, "tle": {"line1": "1 28890U 05043A   25358.18790690  .00000143  00000+0  37000-4 0  9993", "line2": "2 28890  98.2665 125.7226 0015829 107.6580 252.6352 14.63375035 75051"}}, "geometry": {"type": "Point", "coordinates": [97.24254800504896, 73.15673072997032]}}, {"type": "Feature", "properties": {"norad_id": 33320, "name": "HUANJING 1A (HJ-1A)", "group": "dmc", "lat": -42.24205564782244, "lon": 159.2036881053818, "alt_km": 634.6504826341234, "timestamp": "2025-12-24T09:46:30.662069+00:00", "meta": {"OBJECT_NAME": "HUANJING 1A (HJ-1A)", "OBJECT_ID": "2008-041A", "EPOCH": "2025-12-24T05:32:10.214592", "MEAN_MOTION": 14.83428451, "ECCENTRICITY": 0.0019302, "INCLINATION": 97.6547, "RA_OF_ASC_NODE": 346.0494, "ARG_OF_PERICENTER": 357.8754, "MEAN_ANOMALY": 2.2375, "EPHEMERIS_TYPE": 0, "CLASSIFICATION_TYPE": "U", "NORAD_CAT_ID": 33320, "ELEMENT_SET_NO": 999, "REV_AT_EPOCH": 93246, "BSTAR": 0.00018291, "MEAN_MOTION_DOT": 1.455e-05, "MEAN_MOTION_DDOT": 0}, "tle": {"line1": "1 33320U 08041A   25358.23067378  .00001455  00000+0  18291-3 0  9991", "line2": "2 33320  97.6547 346.0494 0019302 357.8754   2.2375 14.83428451932468"}}, "geometry": {"type": "Point", "coordinates": [159.2036881053818, -42.24205564782244]}}, {"type": "Feature", "properties": {"norad_id": 33321, "name": "HUANJING 1B (HJ-1B)", "group": "dmc", "lat": 58.92817735765569, "lon": -22.986692299616244, "alt_km": 589.9742597492341, "timestamp": "2025-12-24T09:46:30.662084+00:00", "meta": {"OBJECT_NAME": "HUANJING 1B (HJ-1B)", "OBJECT_ID": "2008-041B", "EPOCH": "2025-12-24T04:38:59.751168", "MEAN_MOTION": 14.82849563, "ECCENTRICITY": 0.0037797, "INCLINATION": 97.6402, "RA_OF_ASC_NODE": 349.6809, "ARG_OF_PERICENTER": 39.3955, "MEAN_ANOMALY": 320.9997, "EPHEMERIS_TYPE": 0, "CLASSIFICATION_TYPE": "U", "NORAD_CAT_ID": 33321, "ELEMENT_SET_NO": 999, "REV_AT_EPOCH": 93247, "BSTAR": 0.00018216, "MEAN_MOTION_DOT": 1.441e-05, "MEAN_MOTION_DDOT": 0}, "tle": {"line1": "1 33321U 08041B   25358.19374712  .00001441  00000+0  18216-3 0  9992", "line2": "2 33321  97.6402 349.6809 0037797  39.3955 320.9997 14.82849563932472"}}, "geometry": {"type": "Point", "coordinates": [-22.986692299616244, 58.92817735765569]}}, {"type": "Feature", "properties": {"norad_id": 33446, "name": "YAOGAN-4", "group": "dmc", "lat": -33.780568518974974, "lon": -66.26386476085813, "alt_km": 620.4141111303452, "timestamp": "2025-12-24T09:46:30.662097+00:00", "meta": {"OBJECT_NAME": "YAOGAN-4", "OBJECT_ID": "2008-061A", "EPOCH": "2025-12-24T01:49:49.810080", "MEAN_MOTION": 14.82714027, "ECCENTRICITY": 0.0013007, "INCLINATION": 97.9197, "RA_OF_ASC_NODE": 288.0651, "ARG_OF_PERICENTER": 283.1439, "MEAN_ANOMALY": 76.8323, "EPHEMERIS_TYPE": 0, "CLASSIFICATION_TYPE": "U", "NORAD_CAT_ID": 33446, "ELEMENT_SET_NO": 999, "REV_AT_EPOCH": 91971, "BSTAR": 0.00017033, "MEAN_MOTION_DOT": 1.323e-05, "MEAN_MOTION_DDOT": 0}, "tle": {"line1": "1 33446U 08061A   25358.07627095  .00001323  00000+0  17033-3 0  9999", "line2": "2 33446  97.9197 288.0651 0013007 283.1439  76.8323 14.82714027919717"}}, "geometry": {"type": "Point", "coordinates": [-66.26386476085813, -33.780568518974974]}}, {"type": "Feature", "properties": {"norad_id": 35681, "name": "DEIMOS-1", "group": "dmc", "lat": 48.386408115032424, "lon": -12.753280049894501, "alt_km": 640.3337487668468, "timestamp": "2025-12-24T09:46:30.662110+00:00", "meta": {"OBJECT_NAME": "DEIMOS-1", "OBJECT_ID": "2009-041A", "EPOCH": "2025-12-24T04:17:57.518880", "MEAN_MOTION": 14.74969473, "ECCENTRICITY": 0.0002491, "INCLINATION": 97.7153, "RA_OF_ASC_NODE": 158.2504, "ARG_OF_PERICENTER": 61.3891, "MEAN_ANOMALY": 298.7569, "EPHEMERIS_TYPE": 0, "CLASSIFICATION_TYPE": "U", "NORAD_CAT_ID": 35681, "ELEMENT_SET_NO": 999, "REV_AT_EPOCH": 88108, "BSTAR": 0.00012647, "MEAN_MOTION_DOT": 8.03e-06, "MEAN_MOTION_DDOT": 0}, "tle": {"line1": "1 35681U 09041A   25358.17913795  .00000803  00000+0  12647-3 0  9995", "line2": "2 35681  97.7153 158.2504 0002491  61.3891 298.7569 14.74969473881081"}}, "geometry": {"type": "Point", "coordinates": [-12.753280049894501, 48.386408115032424]}}, {"type": "Feature", "properties": {"norad_id": 35683, "name": "UK-DMC 2", "group": "dmc", "lat": 5.472426588729599, "lon": -46.26071090491806, "alt_km": 645.2411523098572, "timestamp": "2025-12-24T09:46:30.662121+00:00", "meta": {"OBJECT_NAME": "UK-DMC 2", "OBJECT_ID": "2009-041C", "EPOCH": "2025-12-24T05:43:58.494144", "MEAN_MOTION": 14.75644615, "ECCENTRICITY": 0.0001565, "INCLINATION": 97.8573, "RA_OF_ASC_NODE": 132.8176, "ARG_OF_PERICENTER": 92.1303, "MEAN_ANOMALY": 268.0086, "EPHEMERIS_TYPE": 0, "CLASSIFICATION_TYPE": "U", "NORAD_CAT_ID": 35683, "ELEMENT_SET_NO": 999, "REV_AT_EPOCH": 88076, "BSTAR": 0.00013322, "MEAN_MOTION_DOT": 8.6e-06, "MEAN_MOTION_DDOT": 0}, "tle": {"line1": "1 35683U 09041C   25358.23887146  .00000860  00000+0  13322-3 0  9998", "line2": "2 35683  97.8573 132.8176 0001565  92.1303 268.0086 14.75644615880761"}}, "geometry": {"type": "Point", "coordinates": [-46.26071090491806, 5.472426588729599]}}, {"type": "Feature", "properties": {"norad_id": 40715, "name": "DMC3-FM1", "group": "dmc", "lat": -80.93505084342571, "lon": -77.21006563220308, "alt_km": 616.6769824366493, "timestamp": "2025-12-24T09:46:30.662133+00:00", "meta": {"OBJECT_NAME": "DMC3-FM1", "OBJECT_ID": "2015-032A", "EPOCH": "2025-12-24T05:18:28.552320", "MEAN_MOTION": 14.85459513, "ECCENTRICITY": 0.0004043, "INCLINATION": 97.6683, "RA_OF_ASC_NODE": 224.995, "ARG_OF_PERICENTER": 274.2962, "MEAN_ANOMALY": 85.7791, "EPHEMERIS_TYPE": 0, "CLASSIFICATION_TYPE": "U", "NORAD_CAT_ID": 40715, "ELEMENT_SET_NO": 999, "REV_AT_EPOCH": 56393, "BSTAR": 8.5054e-05, "MEAN_MOTION_DOT": 6.82e-06, "MEAN_MOTION_DDOT": 0}, "tle": {"line1": "1 40715U 15032A   25358.22116380  .00000682  00000+0  85054-4 0  9995", "line2": "2 40715  97.6683 224.9950 0004043 274.2962  85.7791 14.85459513563930"}}, "geometry": {"type": "Point", "coordinates": [-77.21006563220308, -80.93505084342571]}}, {"type": "Feature", "properties": {"norad_id": 40716, "name": "DMC3-FM2", "group": "dmc", "lat": 25.008351906895307, "lon": 50.23240106173925, "alt_km": 613.3498967141268, "timestamp": "2025-12-24T09:46:30.662144+00:00", "meta": {"OBJECT_NAME": "DMC3-FM2", "OBJECT_ID": "2015-032B", "EPOCH": "2025-12-24T04:13:51.101760", "MEAN_MOTION": 14.85459366, "ECCENTRICITY": 0.0004685, "INCLINATION": 97.6739, "RA_OF_ASC_NODE": 226.4036, "ARG_OF_PERICENTER": 280.7837, "MEAN_ANOMALY": 79.2851, "EPHEMERIS_TYPE": 0, "CLASSIFICATION_TYPE": "U", "NORAD_CAT_ID": 40716, "ELEMENT_SET_NO": 999, "REV_AT_EPOCH": 56392, "BSTAR": 7.6301e-05, "MEAN_MOTION_DOT": 6.06e-06, "MEAN_MOTION_DDOT": 0}, "tle": {"line1": "1 40716U 15032B   25358.17628590  .00000606  00000+0  76301-4 0  9992", "line2": "2 40716  97.6739 226.4036 0004685 280.7837  79.2851 14.85459366563920"}}, "geometry": {"type": "Point", "coordinates": [50.23240106173925, 25.008351906895307]}}, {"type": "Feature", "properties": {"norad_id": 40717, "name": "DMC3-FM3", "group": "dmc", "lat": 38.122879593116465, "lon": -137.81097260626456, "alt_km": 610.7066747419567, "timestamp": "2025-12-24T09:46:30.662155+00:00", "meta": {"OBJECT_NAME": "DMC3-FM3", "OBJECT_ID": "2015-032C", "EPOCH": "2025-12-24T04:45:08.146944", "MEAN_MOTION": 14.85446344, "ECCENTRICITY": 0.0003975, "INCLINATION": 97.6793, "RA_OF_ASC_NODE": 228.0653, "ARG_OF_PERICENTER": 281.2959, "MEAN_ANOMALY": 78.7809, "EPHEMERIS_TYPE": 0, "CLASSIFICATION_TYPE": "U", "NORAD_CAT_ID": 40717, "ELEMENT_SET_NO": 999, "REV_AT_EPOCH": 56393, "BSTAR": 0.0001283, "MEAN_MOTION_DOT": 1.055e-05, "MEAN_MOTION_DDOT": 0}, "tle": {"line1": "1 40717U 15032C   25358.19801096  .00001055  00000+0  12830-3 0  9994", "line2": "2 40717  97.6793 228.0653 0003975 281.2959  78.7809 14.85446344563936"}}, "geometry": {"type": "Point", "coordinates": [-137.81097260626456, 38.122879593116465]}}]}